IRIDIUM 116             
1 43072U 17083C   25113.76665519  .00000011  00000+0 -30682-5 0  9998
2 43072  86.3957 137.3595 0002356  97.6564 262.4899 14.34217097384050
IRIDIUM 130             
1 43073U 17083D   25113.59540608 -.00000009  00000+0 -10357-4 0  9995
2 43073  86.3965 137.6654 0002168 102.8890 257.2548 14.34216939383978
IRIDIUM 134             
1 43075U 17083F   25113.11971254  .00000024  00000+0  14746-5 0  9992
2 43075  86.3961 137.6808 0001987  98.4326 261.7095 14.34217751383890
IRIDIUM 137             
1 43076U 17083G   25113.76031645  .00000067  00000+0  16987-4 0  9990
2 43076  86.3959 137.4971 0002913  97.3760 262.7767 14.34217918384058
IRIDIUM 141             
1 43077U 17083H   25113.05628445  .00000174  00000+0  55087-4 0  9996
2 43077  86.3953 137.6459 0002169  86.1697 273.9747 14.34217832383959
IRIDIUM 153             
1 43078U 17083J   25113.70615014  .00000045  00000+0  89132-5 0  9993
2 43078  86.3920 105.8504 0002019  79.5452 280.5971 14.34217751385158
